ONEWEB-0685             
1 54679U 22166AP  25337.11427970 -.00000083  00000+0 -23310-3 0  9993
2 54679  87.9207 283.0981 0001703  89.8685 270.2644 13.21833261145513
ONEWEB-0712             
1 54680U 22166AQ  25337.06386015 -.00000045  00000+0 -15193-3 0  9991
2 54680  87.9041 267.8236 0002294  82.2809 277.8582 13.16594518146254
ONEWEB-0714             
1 54681U 22166AR  25337.12033707 -.00000015  00000+0 -68508-4 0  9992
2 54681  87.9207 283.0909 0001893  85.1588 274.9762 13.21827406145636
ONEWEB-0532             
1 55140U 23004A   25337.11802780  .00000106  00000+0  24107-3 0  9994
2 55140  87.9130  44.8470 0001356 109.5687 250.5591 13.17648904141762
ONEWEB-0533             
1 55141U 23004B   25337.14674047  .00000415  00000+0  11185-2 0  9995
2 55141  87.8953  29.6092 0001877 104.4059 255.7278 13.12442608142343
ONEWEB-0541             
1 55142U 23004C   25336.94699296 -.00000287  00000+0 -84611-3 0  9990
2 55142  87.8868  60.1264 0001523 100.9341 259.1959 13.11417013140223
ONEWEB-0543             
1 55143U 23004D   25337.09894417  .00000018  00000+0  13921-4 0  9997
2 55143  87.9170  14.4436 0002096  95.3375 264.7997 13.18685098143857
ONEWEB-0544             
1 55144U 23004E   25337.09234837  .00000046  00000+0  84904-4 0  9992
2 55144  87.9177  14.4346 0001805  89.7066 270.4273 13.18686590143855
